{
    "mercury": {
        "semimajor_axis": 0.3870995,
        "eccentricity": 0.2056347,
        "inclination": 7.0039390,
        "mean_anomaly": 120.8972748,
        "argument_of_perihelion": 29.1748322,
        "ascending_node": 48.3082035,
        "mean_daily_motion": 4.0923256,
        "epoch_jd": 2458217.5
    },
    "venus": {
        "semimajor_axis": 0.7233309,
        "eccentricity": 0.0067947,
        "inclination": 3.3944942,
        "mean_anomaly": 300.8184040,
        "argument_of_perihelion": 54.7491841,
        "ascending_node": 76.6282625,
        "mean_daily_motion": 1.6021350,
        "epoch_jd": 2458217.5
    },
    "mars": {
        "semimajor_axis": 1.5237578,
        "eccentricity": 0.0933514,
        "inclination": 1.8482183,
        "mean_anomaly": 275.9331564,
        "argument_of_perihelion": 286.6108154,
        "ascending_node": 49.5086435,
        "mean_daily_motion": 0.5239987,
        "epoch_jd": 2458217.5
    },
    "jupiter": {
        "semimajor_axis": 5.2023850,
        "eccentricity": 0.0488689,
        "inclination": 1.3036654,
        "mean_anomaly": 214.6277949,
        "argument_of_perihelion": 273.6754235,
        "ascending_node": 100.5178350,
        "mean_daily_motion": 0.0831012,
        "epoch_jd": 2458217.5
    },
    "saturn": {
        "semimajor_axis": 9.5736527,
        "eccentricity": 0.0513904,
        "inclination": 2.4845287,
        "mean_anomaly": 179.6376468,
        "argument_of_perihelion": 339.9069438,
        "ascending_node": 113.6099720,
        "mean_daily_motion": 0.0332774,
        "epoch_jd": 2458217.5
    },
    "uranus": {
        "semimajor_axis": 19.1343471,
        "eccentricity": 0.0490607,
        "inclination": 0.7711884,
        "mean_anomaly": 217.8428282,
        "argument_of_perihelion": 99.5381237,
        "ascending_node": 74.0401139,
        "mean_daily_motion": 0.0117759,
        "epoch_jd": 2458217.5
    },
    "neptune": {
        "semimajor_axis": 30.0717769,
        "eccentricity": 0.0069276,
        "inclination": 1.7665975,
        "mean_anomaly": 308.4743708,
        "argument_of_perihelion": 264.3607011,
        "ascending_node": 131.7045588,
        "mean_daily_motion": 0.0059769,
        "epoch_jd": 2458217.5
    }
}
